IRIDIUM 33              
1 24946U 97051C   26061.47442532  .00000375  00000+0  12470-3 0  9994
2 24946  86.3868  34.7265 0006577 329.0548  31.0260 14.35096000489785
IRIDIUM 33 DEB          
1 33773U 97051L   26061.64915563  .00001394  00000+0  40680-3 0  9996
2 33773  86.4024  26.7049 0008879 246.1580 113.8691 14.43459188895003
IRIDIUM 33 DEB          
1 33775U 97051N   26061.81317813  .00001868  00000+0  56651-3 0  9992
2 33775  86.3666  15.3536 0010803 259.8100 167.2959 14.41730158892947
IRIDIUM 33 DEB          
1 33776U 97051P   26061.47347860  .00001049  00000+0  33770-3 0  9998
2 33776  86.4012  47.2595 0012573 301.7081 173.9061 14.38389743892285
IRIDIUM 33 DEB          
1 33777U 97051Q   26061.76386130  .00003761  00000+0  84535-3 0  9992
2 33777  86.3830   0.3734 0007234   9.6092 350.5253 14.56274563896982
IRIDIUM 33 DEB          
1 33850U 97051T   26061.77644653  .00001823  00000+0  54464-3 0  9997
2 33850  86.3466 355.7639 0008916 270.0192 150.8729 14.42461212893062
IRIDIUM 33 DEB          
1 33853U 97051W   26061.72485207  .00002885  00000+0  16239-2 0  9999
2 33853  86.0007 314.7423 0210863 351.4767  60.9407 13.99545678864643
IRIDIUM 33 DEB          
1 33860U 97051AD  26061.81373201  .00010559  00000+0  17989-2 0  9997
2 33860  86.3874 351.7581 0011709  65.6969 347.8927 14.68906635898976
IRIDIUM 33 DEB          
1 33862U 97051AF  26061.81247729  .00012680  00000+0  19932-2 0  9991
2 33862  86.4129   2.1618 0049877 146.4877 271.0856 14.71626877900001
IRIDIUM 33 DEB          
1 33866U 97051AK  26061.53438836  .00003743  00000+0  14734-2 0  9990
2 33866  86.2977  59.2476 0110940 265.9643 223.0778 14.25687065879478
IRIDIUM 33 DEB          
1 33870U 97051AP  26061.41591012  .00003686  00000+0  10203-2 0  9991
2 33870  86.3764  24.0808 0018291 281.2009 208.5130 14.46347205892882
IRIDIUM 33 DEB          
1 33881U 97051BA  26061.49844992  .00018924  00000+0  39639-2 0  9994
2 33881  86.3813  72.0040 0052997 267.3795 214.8107 14.58755740886627
IRIDIUM 33 DEB          
1 33884U 97051BD  26061.78490568  .00017878  00000+0  23525-2 0  9999
2 33884  86.3721 333.6322 0014056  38.0555  29.8593 14.80014514900305
IRIDIUM 33 DEB          
1 33886U 97051BF  26061.67974481  .00000733  00000+0  24475-3 0  9998
2 33886  86.3832  33.5559 0013790 354.5876 178.7229 14.36157472891990
IRIDIUM 33 DEB          
1 33887U 97051BG  26061.74338718  .00000527  00000+0  16998-3 0  9996
2 33887  86.3086 328.9371 0005964 359.8720  53.6263 14.37316820893148
IRIDIUM 33 DEB          
1 33953U 97051BN  26061.84847892  .00006375  00000+0  14330-2 0  9993
2 33953  86.3876  18.9752 0015102 179.6887 209.9595 14.56302852894691
