[{"OBJECT_NAME":"IRIDIUM 33","OBJECT_ID":"1997-051C","EPOCH":"2026-03-02T11:23:10.347648","MEAN_MOTION":14.35096,"ECCENTRICITY":0.00065772,"INCLINATION":86.3868,"RA_OF_ASC_NODE":34.7265,"ARG_OF_PERICENTER":329.0548,"MEAN_ANOMALY":31.026,"EPHEMERIS_TYPE":0,"CLASSIFICATION_TYPE":"U","NORAD_CAT_ID":24946,"ELEMENT_SET_NO":999,"REV_AT_EPOCH":48978,"BSTAR":0.00012469847,"MEAN_MOTION_DOT":3.75e-6,"MEAN_MOTION_DDOT":0},{"OBJECT_NAME":"IRIDIUM 33 DEB","OBJECT_ID":"1997-051L","EPOCH":"2026-03-02T15:34:47.046432","MEAN_MOTION":14.43459188,"ECCENTRICITY":0.0008879,"INCLINATION":86.4024,"RA_OF_ASC_NODE":26.7049,"ARG_OF_PERICENTER":246.158,"MEAN_ANOMALY":113.8691,"EPHEMERIS_TYPE":0,"CLASSIFICATION_TYPE":"U","NORAD_CAT_ID":33773,"ELEMENT_SET_NO":999,"REV_AT_EPOCH":89500,"BSTAR":0.0004068,"MEAN_MOTION_DOT":1.394e-5,"MEAN_MOTION_DDOT":0},{"OBJECT_NAME":"IRIDIUM 33 DEB","OBJECT_ID":"1997-051N","EPOCH":"2026-03-02T19:30:58.590432","MEAN_MOTION":14.41730158,"ECCENTRICITY":0.0010803,"INCLINATION":86.3666,"RA_OF_ASC_NODE":15.3536,"ARG_OF_PERICENTER":259.81,"MEAN_ANOMALY":167.2959,"EPHEMERIS_TYPE":0,"CLASSIFICATION_TYPE":"U","NORAD_CAT_ID":33775,"ELEMENT_SET_NO":999,"REV_AT_EPOCH":89294,"BSTAR":0.00056651,"MEAN_MOTION_DOT":1.868e-5,"MEAN_MOTION_DDOT":0},{"OBJECT_NAME":"IRIDIUM 33 DEB","OBJECT_ID":"1997-051P","EPOCH":"2026-03-02T11:21:48.551040","MEAN_MOTION":14.38389743,"ECCENTRICITY":0.00125732,"INCLINATION":86.4012,"RA_OF_ASC_NODE":47.2595,"ARG_OF_PERICENTER":301.7081,"MEAN_ANOMALY":173.9061,"EPHEMERIS_TYPE":0,"CLASSIFICATION_TYPE":"U","NORAD_CAT_ID":33776,"ELEMENT_SET_NO":999,"REV_AT_EPOCH":89228,"BSTAR":0.00033769931,"MEAN_MOTION_DOT":1.049e-5,"MEAN_MOTION_DDOT":0},{"OBJECT_NAME":"IRIDIUM 33 DEB","OBJECT_ID":"1997-051Q","EPOCH":"2026-03-02T18:19:57.616320","MEAN_MOTION":14.56274563,"ECCENTRICITY":0.0007234,"INCLINATION":86.383,"RA_OF_ASC_NODE":0.3734,"ARG_OF_PERICENTER":9.6092,"MEAN_ANOMALY":350.5253,"EPHEMERIS_TYPE":0,"CLASSIFICATION_TYPE":"U","NORAD_CAT_ID":33777,"ELEMENT_SET_NO":999,"REV_AT_EPOCH":89698,"BSTAR":0.00084535,"MEAN_MOTION_DOT":3.761e-5,"MEAN_MOTION_DDOT":0},{"OBJECT_NAME":"IRIDIUM 33 DEB","OBJECT_ID":"1997-051T","EPOCH":"2026-03-02T18:38:04.980192","MEAN_MOTION":14.42461212,"ECCENTRICITY":0.0008916,"INCLINATION":86.3466,"RA_OF_ASC_NODE":355.7639,"ARG_OF_PERICENTER":270.0192,"MEAN_ANOMALY":150.8729,"EPHEMERIS_TYPE":0,"CLASSIFICATION_TYPE":"U","NORAD_CAT_ID":33850,"ELEMENT_SET_NO":999,"REV_AT_EPOCH":89306,"BSTAR":0.00054464,"MEAN_MOTION_DOT":1.823e-5,"MEAN_MOTION_DDOT":0},{"OBJECT_NAME":"IRIDIUM 33 DEB","OBJECT_ID":"1997-051W","EPOCH":"2026-03-02T17:23:47.218848","MEAN_MOTION":13.99545678,"ECCENTRICITY":0.0210863,"INCLINATION":86.0007,"RA_OF_ASC_NODE":314.7423,"ARG_OF_PERICENTER":351.4767,"MEAN_ANOMALY":60.9407,"EPHEMERIS_TYPE":0,"CLASSIFICATION_TYPE":"U","NORAD_CAT_ID":33853,"ELEMENT_SET_NO":999,"REV_AT_EPOCH":86464,"BSTAR":0.0016239,"MEAN_MOTION_DOT":2.885e-5,"MEAN_MOTION_DDOT":0},{"OBJECT_NAME":"IRIDIUM 33 DEB","OBJECT_ID":"1997-051AD","EPOCH":"2026-03-02T19:31:46.445664","MEAN_MOTION":14.68906635,"ECCENTRICITY":0.0011709,"INCLINATION":86.3874,"RA_OF_ASC_NODE":351.7581,"ARG_OF_PERICENTER":65.6969,"MEAN_ANOMALY":347.8927,"EPHEMERIS_TYPE":0,"CLASSIFICATION_TYPE":"U","NORAD_CAT_ID":33860,"ELEMENT_SET_NO":999,"REV_AT_EPOCH":89897,"BSTAR":0.0017989,"MEAN_MOTION_DOT":0.00010559,"MEAN_MOTION_DDOT":0},{"OBJECT_NAME":"IRIDIUM 33 DEB","OBJECT_ID":"1997-051AF","EPOCH":"2026-03-02T19:29:58.037856","MEAN_MOTION":14.71626877,"ECCENTRICITY":0.0049877,"INCLINATION":86.4129,"RA_OF_ASC_NODE":2.1618,"ARG_OF_PERICENTER":146.4877,"MEAN_ANOMALY":271.0856,"EPHEMERIS_TYPE":0,"CLASSIFICATION_TYPE":"U","NORAD_CAT_ID":33862,"ELEMENT_SET_NO":999,"REV_AT_EPOCH":90000,"BSTAR":0.0019932,"MEAN_MOTION_DOT":0.0001268,"MEAN_MOTION_DDOT":0},{"OBJECT_NAME":"IRIDIUM 33 DEB","OBJECT_ID":"1997-051AK","EPOCH":"2026-03-02T12:49:31.154304","MEAN_MOTION":14.25687065,"ECCENTRICITY":0.01109404,"INCLINATION":86.2977,"RA_OF_ASC_NODE":59.2476,"ARG_OF_PERICENTER":265.9643,"MEAN_ANOMALY":223.0778,"EPHEMERIS_TYPE":0,"CLASSIFICATION_TYPE":"U","NORAD_CAT_ID":33866,"ELEMENT_SET_NO":999,"REV_AT_EPOCH":87947,"BSTAR":0.0014733756,"MEAN_MOTION_DOT":3.743e-5,"MEAN_MOTION_DDOT":0},{"OBJECT_NAME":"IRIDIUM 33 DEB","OBJECT_ID":"1997-051AP","EPOCH":"2026-03-02T09:58:54.634368","MEAN_MOTION":14.46347205,"ECCENTRICITY":0.00182913,"INCLINATION":86.3764,"RA_OF_ASC_NODE":24.0808,"ARG_OF_PERICENTER":281.2009,"MEAN_ANOMALY":208.513,"EPHEMERIS_TYPE":0,"CLASSIFICATION_TYPE":"U","NORAD_CAT_ID":33870,"ELEMENT_SET_NO":999,"REV_AT_EPOCH":89288,"BSTAR":0.0010203085,"MEAN_MOTION_DOT":3.686e-5,"MEAN_MOTION_DDOT":0},{"OBJECT_NAME":"IRIDIUM 33 DEB","OBJECT_ID":"1997-051BA","EPOCH":"2026-03-02T11:57:46.073088","MEAN_MOTION":14.5875574,"ECCENTRICITY":0.0052997,"INCLINATION":86.3813,"RA_OF_ASC_NODE":72.004,"ARG_OF_PERICENTER":267.3795,"MEAN_ANOMALY":214.8107,"EPHEMERIS_TYPE":0,"CLASSIFICATION_TYPE":"U","NORAD_CAT_ID":33881,"ELEMENT_SET_NO":999,"REV_AT_EPOCH":88662,"BSTAR":0.0039639007,"MEAN_MOTION_DOT":0.00018924,"MEAN_MOTION_DDOT":0},{"OBJECT_NAME":"IRIDIUM 33 DEB","OBJECT_ID":"1997-051BD","EPOCH":"2026-03-02T18:50:15.850752","MEAN_MOTION":14.80014514,"ECCENTRICITY":0.0014056,"INCLINATION":86.3721,"RA_OF_ASC_NODE":333.6322,"ARG_OF_PERICENTER":38.0555,"MEAN_ANOMALY":29.8593,"EPHEMERIS_TYPE":0,"CLASSIFICATION_TYPE":"U","NORAD_CAT_ID":33884,"ELEMENT_SET_NO":999,"REV_AT_EPOCH":90030,"BSTAR":0.0023525,"MEAN_MOTION_DOT":0.00017878,"MEAN_MOTION_DDOT":0},{"OBJECT_NAME":"IRIDIUM 33 DEB","OBJECT_ID":"1997-051BF","EPOCH":"2026-03-02T16:18:49.951584","MEAN_MOTION":14.36157472,"ECCENTRICITY":0.001379,"INCLINATION":86.3832,"RA_OF_ASC_NODE":33.5559,"ARG_OF_PERICENTER":354.5876,"MEAN_ANOMALY":178.7229,"EPHEMERIS_TYPE":0,"CLASSIFICATION_TYPE":"U","NORAD_CAT_ID":33886,"ELEMENT_SET_NO":999,"REV_AT_EPOCH":89199,"BSTAR":0.00024475,"MEAN_MOTION_DOT":7.33e-6,"MEAN_MOTION_DDOT":0},{"OBJECT_NAME":"IRIDIUM 33 DEB","OBJECT_ID":"1997-051BG","EPOCH":"2026-03-02T17:50:28.652352","MEAN_MOTION":14.3731682,"ECCENTRICITY":0.0005964,"INCLINATION":86.3086,"RA_OF_ASC_NODE":328.9371,"ARG_OF_PERICENTER":359.872,"MEAN_ANOMALY":53.6263,"EPHEMERIS_TYPE":0,"CLASSIFICATION_TYPE":"U","NORAD_CAT_ID":33887,"ELEMENT_SET_NO":999,"REV_AT_EPOCH":89314,"BSTAR":0.00016998,"MEAN_MOTION_DOT":5.27e-6,"MEAN_MOTION_DDOT":0},{"OBJECT_NAME":"IRIDIUM 33 DEB","OBJECT_ID":"1997-051BN","EPOCH":"2026-03-02T20:21:48.578688","MEAN_MOTION":14.56302852,"ECCENTRICITY":0.0015102,"INCLINATION":86.3876,"RA_OF_ASC_NODE":18.9752,"ARG_OF_PERICENTER":179.6887,"MEAN_ANOMALY":209.9595,"EPHEMERIS_TYPE":0,"CLASSIFICATION_TYPE":"U","NORAD_CAT_ID":33953,"ELEMENT_SET_NO":999,"REV_AT_EPOCH":89469,"BSTAR":0.001433,"MEAN_MOTION_DOT":6.375e-5,"MEAN_MOTION_DDOT":0}]
